ADRAS-J                 
1 58992U 24034A   24236.60367792  .00006280  00000+0  56999-3 0  9999
2 58992  98.2179 212.7411 0043721 184.3957 175.6885 14.94947549 27930
